[{"OBJECT_NAME":"DAQI 1","OBJECT_ID":"2022-039A","EPOCH":"2026-03-09T22:54:20.613600","MEAN_MOTION":14.57656651,"ECCENTRICITY":0.00031421,"INCLINATION":98.1406,"RA_OF_ASC_NODE":9.9086,"ARG_OF_PERICENTER":179.0073,"MEAN_ANOMALY":181.1133,"EPHEMERIS_TYPE":0,"CLASSIFICATION_TYPE":"U","NORAD_CAT_ID":52257,"ELEMENT_SET_NO":999,"REV_AT_EPOCH":20748,"BSTAR":0.00015776959,"MEAN_MOTION_DOT":6.74e-6,"MEAN_MOTION_DDOT":0},{"OBJECT_NAME":"FENGYUN 1C DEB","OBJECT_ID":"1999-025XJ","EPOCH":"2026-03-09T22:25:49.891872","MEAN_MOTION":14.6127397,"ECCENTRICITY":0.00260041,"INCLINATION":98.9624,"RA_OF_ASC_NODE":245.2473,"ARG_OF_PERICENTER":142.9854,"MEAN_ANOMALY":351.5123,"EPHEMERIS_TYPE":0,"CLASSIFICATION_TYPE":"U","NORAD_CAT_ID":30249,"ELEMENT_SET_NO":999,"REV_AT_EPOCH":98835,"BSTAR":0.0040583051,"MEAN_MOTION_DOT":0.00020123,"MEAN_MOTION_DDOT":0}]
